0 SCD 2
1 25504U 98060A   13282.96796414  .00000330  00000-0  43344-4 0  5456
2 25504 024.9951 146.5340 0017171 221.5693 236.5034 14.43513580790177
0 SCD 2
1 25504U 98060A   13284.00839741  .00000358  00000-0  51436-4 0  5466
2 25504 024.9951 140.1382 0017188 232.6935 243.1058 14.43514275790322
0 SCD 2
1 25504U 98060A   13285.80193448  .00000355  00000-0  50430-4 0  5473
2 25504 024.9953 129.1129 0017214 251.8561 203.2211 14.43514568790589
0 SCD 2
1 25504U 98060A   13289.60167395  .00000364  00000-0  53124-4 0  5492
2 25504 024.9955 105.7556 0017281 292.2561 148.7815 14.43516923791130
0 SCD 2
1 25504U 98060A   13290.71389574  .00000398  00000-0  63174-4 0  5506
2 25504 024.9957 098.9186 0017320 303.9390 168.6537 14.43517329791298
0 SCD 2
1 25504U 98060A   13291.81863652  .00000417  00000-0  68704-4 0  5519
2 25504 024.9959 092.1276 0017400 315.5786 149.6168 14.43517750791458
0 SCD 2
1 25504U 98060A   13292.86522498  .00000434  00000-0  73473-4 0  5524
2 25504 024.9961 085.6938 0017491 326.4522 188.5362 14.43518080791604
0 SCD 2
1 25504U 98060A   13294.50623211  .00000446  00000-0  77139-4 0  5539
2 25504 024.9966 075.6067 0017629 343.5609 076.4786 14.43519356791848
0 SCD 2
1 25504U 98060A   13295.68718243  .00000484  00000-0  88190-4 0  5541
2 25504 024.9968 068.3479 0017703 355.9412 093.5462 14.43519958792017
